IRIDIUM 126             
1 42809U 17039G   25167.35230178  .00000240  00000+0  78517-4 0  9990
2 42809  86.3980 146.5724 0002519  90.1856 269.9628 14.34219131417513
IRIDIUM 124             
1 42810U 17039H   25167.47087671  .00000389  00000+0  10954-3 0  9997
2 42810  86.4484  83.2689 0002353  77.5223 282.6241 14.43278930422369
IRIDIUM 128             
1 42811U 17039J   25167.76165180  .00000024  00000+0  14655-5 0  9992
2 42811  86.3991 177.8719 0002335  80.5648 279.5811 14.34217763417607
IRIDIUM 121             
1 42812U 17039K   25167.51086734  .00000209  00000+0  67671-4 0  9993
2 42812  86.3981 146.5312 0002220  85.3858 274.7592 14.34218475417534
IRIDIUM 133             
1 42955U 17061A   25167.72359644  .00000012  00000+0 -29062-5 0  9998
2 42955  86.3998 177.9961 0002296  88.6182 271.5276 14.34217692402399
IRIDIUM 100             
1 42956U 17061B   25167.08933990  .00000105  00000+0  30388-4 0  9994
2 42956  86.3990 178.1883 0002531  87.3859 272.7626 14.34220164402308
IRIDIUM 122             
1 42957U 17061C   25168.10415219  .00000009  00000+0 -38071-5 0  9990
2 42957  86.3996 177.7638 0002328  89.2990 270.8472 14.34217626402452
IRIDIUM 129             
1 42958U 17061D   25167.78067933  .00000031  00000+0  41143-5 0  9998
2 42958  86.3991 177.9618 0002274 100.2837 259.8615 14.34217832402424
